0 DELTA 1 R/B(1)
1 10062U 77048B   17262.28884905 +.00000107 +00000-0 +75200-5 0  9994
2 10062 028.4167 344.8314 0736887 057.4701 309.4895 13.36590217959333
0 SL-3 R/B
1 10114U 77057B   17262.22435963 +.00000432 +00000-0 +25155-4 0  9996
2 10114 097.2048 079.8201 0013869 357.8628 002.2544 15.16811115197602
0 SL-8 R/B
1 10121U 77059B   17262.22055082 +.00000071 +00000-0 +33452-4 0  9994
2 10121 074.0481 319.1731 0020140 287.1082 072.7865 14.35829274103128
0 SL-8 R/B
1 10521U 77119B   17262.55128632  .00000110  00000-0  42622-4 0  9996
2 10521  74.0262  92.3292 0020103  81.1702 279.1729 14.40685922 85847
0 UME 2 (ISS-B)
1 10674U 78018A   17262.30084536 -.00000066 +00000-0 -24445-4 0  9996
2 10674 069.3617 208.8360 0165460 333.5643 178.2519 13.43604233941778
0 NOAA 15
1 25338U 98030A   17262.24989185 +.00000027 +00000-0 +30208-4 0  9991
2 25338 098.7818 273.3462 0009539 296.6306 063.3896 14.25816690006158
0 ISS (ZARYA)
1 25544U 98067A   17262.25536781 +.00002362 +00000-0 +42787-4 0  9990
2 25544 051.6430 289.3839 0003612 291.7007 170.5597 15.54216953076380
0 GOES 13
1 29155U 06018A   17261.21600333 -.00000282 +00000-0 +00000-0 0  9995
2 29155 000.0423 123.7587 0003039 342.0560 254.2198 01.00280933011369
0 NOAA 19
1 33591U 09005A   17262.21698572 +.00000091 +00000-0 +74303-4 0  9994
2 33591 099.1034 230.4266 0014292 012.2533 347.8982 14.12212282443665
0 SES 1
1 36516U 10016A   17262.23808657 -.00000146 +00000-0 +00000-0 0  9998
2 36516 000.0138 192.8417 0001660 342.0734 168.1184 01.00269035027030
0 TIANGONG 1
1 37820U 11053A   17262.43665789  .00057518  00000-0  23573-3 0  9995
2 37820  42.7584 340.7466 0019205  26.4546  34.6306 15.84882612342899
0 METOP-B
1 38771U 12049A   17262.23388157 +.00000012 +00000-0 +25500-4 0  9996
2 38771 098.7138 320.8131 0001294 040.1550 049.1779 14.21486925259648
